HULIANWANG DIGUI-65     
1 65171U 25174H   26066.63892113  .00000068  00000+0  12426-3 0  9993
2 65171  86.4839 286.2082 0001246  90.6908 269.4369 13.24422511 27343
HULIANWANG DIGUI-66     
1 65172U 25174J   26066.63139209  .00000066  00000+0  11897-3 0  9993
2 65172  86.4874 286.2776 0001288  92.2755 267.8526 13.24422104 27342
HULIANWANG DIGUI-67     
1 65173U 25174K   26066.64653342  .00000051  00000+0  85643-4 0  9999
2 65173  86.4886 286.3064 0001278  90.6586 269.4694 13.24421772 27311
HULIANWANG DIGUI-68     
1 65228U 25178A   26066.59350666  .00000046  00000+0  72438-4 0  9993
2 65228  86.4946  47.8027 0002023  78.8911 281.2450 13.24423924 26869
HULIANWANG DIGUI-69     
1 65229U 25178B   26066.58627310  .00000048  00000+0  76601-4 0  9994
2 65229  86.4965  47.8405 0001975  80.2193 279.9164 13.24417705 26861
HULIANWANG DIGUI-70     
1 65230U 25178C   26066.57867268  .00000050  00000+0  83355-4 0  9990
2 65230  86.4904  47.7106 0002064  78.7591 281.3775 13.24418689 26864
HULIANWANG DIGUI-71     
1 65231U 25178D   26066.57109146  .00000034  00000+0  44469-4 0  9990
2 65231  86.4963  47.8287 0002016  79.7161 280.4200 13.24419540 26862
HULIANWANG DIGUI-72     
1 65232U 25178E   26066.63904104  .00000022  00000+0  16676-4 0  9991
2 65232  86.4946  47.7633 0002023  80.8035 279.3328 13.24420007 26878
HULIANWANG DIGUI-73     
1 65305U 25187A   26066.64492588 -.00000082  00000+0  89961-4 0  9995
2 65305  50.0039 210.0534 0001033 147.3275 212.7661 13.29342657 26194
HULIANWANG DIGUI-74     
1 65306U 25187B   26066.62820087 -.00000098  00000+0  57030-4 0  9992
2 65306  50.0081 210.0333 0001034 148.2488 211.8446 13.29343023 26195
HULIANWANG DIGUI-75     
1 65307U 25187C   26066.61155766 -.00000082  00000+0  89795-4 0  9993
2 65307  50.0073 209.9348 0001030 146.7024 213.3913 13.29342090 26194
HULIANWANG DIGUI-76     
1 65308U 25187D   26066.67022316 -.00000074  00000+0  10785-3 0  9997
2 65308  49.9998 210.1169 0001016 144.3843 215.7097 13.29339509 26190
HULIANWANG DIGUI-77     
1 65309U 25187E   26066.66171963 -.00000079  00000+0  96192-4 0  9992
2 65309  50.0032 210.1272 0001061 145.6782 214.4159 13.29341428 26192
HULIANWANG DIGUI-78     
1 65310U 25187F   26066.61995110 -.00000081  00000+0  93352-4 0  9995
2 65310  50.0098 210.0167 0001021 147.2966 212.7970 13.29341776 26194
HULIANWANG DIGUI-79     
1 65311U 25187G   26066.60308724 -.00000081  00000+0  91772-4 0  9998
2 65311  50.0027 210.4747 0001024 145.4164 214.6775 13.29343257 26187
HULIANWANG DIGUI-80     
1 65312U 25187H   26066.57815739 -.00000092  00000+0  69316-4 0  9995
2 65312  50.0018 210.3316 0001044 144.6830 215.4111 13.29341449 26186
