[{"OBJECT_NAME":"HULIANWANG DIGUI-65","OBJECT_ID":"2025-174H","EPOCH":"2026-03-07T15:20:02.785632","MEAN_MOTION":13.24422511,"ECCENTRICITY":0.00012464,"INCLINATION":86.4839,"RA_OF_ASC_NODE":286.2082,"ARG_OF_PERICENTER":90.6908,"MEAN_ANOMALY":269.4369,"EPHEMERIS_TYPE":0,"CLASSIFICATION_TYPE":"U","NORAD_CAT_ID":65171,"ELEMENT_SET_NO":999,"REV_AT_EPOCH":2734,"BSTAR":0.00012426228,"MEAN_MOTION_DOT":6.8e-7,"MEAN_MOTION_DDOT":0},{"OBJECT_NAME":"HULIANWANG DIGUI-66","OBJECT_ID":"2025-174J","EPOCH":"2026-03-07T15:09:12.276576","MEAN_MOTION":13.24422104,"ECCENTRICITY":0.00012881,"INCLINATION":86.4874,"RA_OF_ASC_NODE":286.2776,"ARG_OF_PERICENTER":92.2755,"MEAN_ANOMALY":267.8526,"EPHEMERIS_TYPE":0,"CLASSIFICATION_TYPE":"U","NORAD_CAT_ID":65172,"ELEMENT_SET_NO":999,"REV_AT_EPOCH":2734,"BSTAR":0.00011897451,"MEAN_MOTION_DOT":6.6e-7,"MEAN_MOTION_DDOT":0},{"OBJECT_NAME":"HULIANWANG DIGUI-67","OBJECT_ID":"2025-174K","EPOCH":"2026-03-07T15:31:00.487488","MEAN_MOTION":13.24421772,"ECCENTRICITY":0.00012783,"INCLINATION":86.4886,"RA_OF_ASC_NODE":286.3064,"ARG_OF_PERICENTER":90.6586,"MEAN_ANOMALY":269.4694,"EPHEMERIS_TYPE":0,"CLASSIFICATION_TYPE":"U","NORAD_CAT_ID":65173,"ELEMENT_SET_NO":999,"REV_AT_EPOCH":2731,"BSTAR":8.5642786e-5,"MEAN_MOTION_DOT":5.1e-7,"MEAN_MOTION_DDOT":0},{"OBJECT_NAME":"HULIANWANG DIGUI-68","OBJECT_ID":"2025-178A","EPOCH":"2026-03-07T14:14:38.975424","MEAN_MOTION":13.24423924,"ECCENTRICITY":0.00020236,"INCLINATION":86.4946,"RA_OF_ASC_NODE":47.8027,"ARG_OF_PERICENTER":78.8911,"MEAN_ANOMALY":281.245,"EPHEMERIS_TYPE":0,"CLASSIFICATION_TYPE":"U","NORAD_CAT_ID":65228,"ELEMENT_SET_NO":999,"REV_AT_EPOCH":2686,"BSTAR":7.2437551e-5,"MEAN_MOTION_DOT":4.6e-7,"MEAN_MOTION_DDOT":0},{"OBJECT_NAME":"HULIANWANG DIGUI-69","OBJECT_ID":"2025-178B","EPOCH":"2026-03-07T14:04:13.995840","MEAN_MOTION":13.24417705,"ECCENTRICITY":0.00019756,"INCLINATION":86.4965,"RA_OF_ASC_NODE":47.8405,"ARG_OF_PERICENTER":80.2193,"MEAN_ANOMALY":279.9164,"EPHEMERIS_TYPE":0,"CLASSIFICATION_TYPE":"U","NORAD_CAT_ID":65229,"ELEMENT_SET_NO":999,"REV_AT_EPOCH":2686,"BSTAR":7.660083e-5,"MEAN_MOTION_DOT":4.8e-7,"MEAN_MOTION_DDOT":0},{"OBJECT_NAME":"HULIANWANG DIGUI-70","OBJECT_ID":"2025-178C","EPOCH":"2026-03-07T13:53:17.319552","MEAN_MOTION":13.24418689,"ECCENTRICITY":0.00020641,"INCLINATION":86.4904,"RA_OF_ASC_NODE":47.7106,"ARG_OF_PERICENTER":78.7591,"MEAN_ANOMALY":281.3775,"EPHEMERIS_TYPE":0,"CLASSIFICATION_TYPE":"U","NORAD_CAT_ID":65230,"ELEMENT_SET_NO":999,"REV_AT_EPOCH":2686,"BSTAR":8.3354922e-5,"MEAN_MOTION_DOT":5.0e-7,"MEAN_MOTION_DDOT":0},{"OBJECT_NAME":"HULIANWANG DIGUI-71","OBJECT_ID":"2025-178D","EPOCH":"2026-03-07T13:42:22.302144","MEAN_MOTION":13.2441954,"ECCENTRICITY":0.00020169,"INCLINATION":86.4963,"RA_OF_ASC_NODE":47.8287,"ARG_OF_PERICENTER":79.7161,"MEAN_ANOMALY":280.42,"EPHEMERIS_TYPE":0,"CLASSIFICATION_TYPE":"U","NORAD_CAT_ID":65231,"ELEMENT_SET_NO":999,"REV_AT_EPOCH":2686,"BSTAR":4.4469163e-5,"MEAN_MOTION_DOT":3.4e-7,"MEAN_MOTION_DDOT":0},{"OBJECT_NAME":"HULIANWANG DIGUI-72","OBJECT_ID":"2025-178E","EPOCH":"2026-03-07T15:20:13.145856","MEAN_MOTION":13.24420007,"ECCENTRICITY":0.00020232,"INCLINATION":86.4946,"RA_OF_ASC_NODE":47.7633,"ARG_OF_PERICENTER":80.8035,"MEAN_ANOMALY":279.3328,"EPHEMERIS_TYPE":0,"CLASSIFICATION_TYPE":"U","NORAD_CAT_ID":65232,"ELEMENT_SET_NO":999,"REV_AT_EPOCH":2687,"BSTAR":1.6675883e-5,"MEAN_MOTION_DOT":2.2e-7,"MEAN_MOTION_DDOT":0},{"OBJECT_NAME":"HULIANWANG DIGUI-73","OBJECT_ID":"2025-187A","EPOCH":"2026-03-07T15:28:41.596032","MEAN_MOTION":13.29342657,"ECCENTRICITY":0.00010335,"INCLINATION":50.0039,"RA_OF_ASC_NODE":210.0534,"ARG_OF_PERICENTER":147.3275,"MEAN_ANOMALY":212.7661,"EPHEMERIS_TYPE":0,"CLASSIFICATION_TYPE":"U","NORAD_CAT_ID":65305,"ELEMENT_SET_NO":999,"REV_AT_EPOCH":2619,"BSTAR":8.9961337e-5,"MEAN_MOTION_DOT":-8.2e-7,"MEAN_MOTION_DDOT":0},{"OBJECT_NAME":"HULIANWANG DIGUI-74","OBJECT_ID":"2025-187B","EPOCH":"2026-03-07T15:04:36.555168","MEAN_MOTION":13.29343023,"ECCENTRICITY":0.00010341,"INCLINATION":50.0081,"RA_OF_ASC_NODE":210.0333,"ARG_OF_PERICENTER":148.2488,"MEAN_ANOMALY":211.8446,"EPHEMERIS_TYPE":0,"CLASSIFICATION_TYPE":"U","NORAD_CAT_ID":65306,"ELEMENT_SET_NO":999,"REV_AT_EPOCH":2619,"BSTAR":5.7029823e-5,"MEAN_MOTION_DOT":-9.8e-7,"MEAN_MOTION_DDOT":0},{"OBJECT_NAME":"HULIANWANG DIGUI-75","OBJECT_ID":"2025-187C","EPOCH":"2026-03-07T14:40:38.581824","MEAN_MOTION":13.2934209,"ECCENTRICITY":0.00010303,"INCLINATION":50.0073,"RA_OF_ASC_NODE":209.9348,"ARG_OF_PERICENTER":146.7024,"MEAN_ANOMALY":213.3913,"EPHEMERIS_TYPE":0,"CLASSIFICATION_TYPE":"U","NORAD_CAT_ID":65307,"ELEMENT_SET_NO":999,"REV_AT_EPOCH":2619,"BSTAR":8.9794648e-5,"MEAN_MOTION_DOT":-8.2e-7,"MEAN_MOTION_DDOT":0},{"OBJECT_NAME":"HULIANWANG DIGUI-76","OBJECT_ID":"2025-187D","EPOCH":"2026-03-07T16:05:07.281024","MEAN_MOTION":13.29339509,"ECCENTRICITY":0.0001016,"INCLINATION":49.9998,"RA_OF_ASC_NODE":210.1169,"ARG_OF_PERICENTER":144.3843,"MEAN_ANOMALY":215.7097,"EPHEMERIS_TYPE":0,"CLASSIFICATION_TYPE":"U","NORAD_CAT_ID":65308,"ELEMENT_SET_NO":999,"REV_AT_EPOCH":2619,"BSTAR":0.00010784599,"MEAN_MOTION_DOT":-7.4e-7,"MEAN_MOTION_DDOT":0},{"OBJECT_NAME":"HULIANWANG DIGUI-77","OBJECT_ID":"2025-187E","EPOCH":"2026-03-07T15:52:52.576032","MEAN_MOTION":13.29341428,"ECCENTRICITY":0.00010619,"INCLINATION":50.0032,"RA_OF_ASC_NODE":210.1272,"ARG_OF_PERICENTER":145.6782,"MEAN_ANOMALY":214.4159,"EPHEMERIS_TYPE":0,"CLASSIFICATION_TYPE":"U","NORAD_CAT_ID":65309,"ELEMENT_SET_NO":999,"REV_AT_EPOCH":2619,"BSTAR":9.6191732e-5,"MEAN_MOTION_DOT":-7.9e-7,"MEAN_MOTION_DDOT":0},{"OBJECT_NAME":"HULIANWANG DIGUI-78","OBJECT_ID":"2025-187F","EPOCH":"2026-03-07T14:52:43.775040","MEAN_MOTION":13.29341776,"ECCENTRICITY":0.00010213,"INCLINATION":50.0098,"RA_OF_ASC_NODE":210.0167,"ARG_OF_PERICENTER":147.2966,"MEAN_ANOMALY":212.797,"EPHEMERIS_TYPE":0,"CLASSIFICATION_TYPE":"U","NORAD_CAT_ID":65310,"ELEMENT_SET_NO":999,"REV_AT_EPOCH":2619,"BSTAR":9.3351633e-5,"MEAN_MOTION_DOT":-8.1e-7,"MEAN_MOTION_DDOT":0},{"OBJECT_NAME":"HULIANWANG DIGUI-79","OBJECT_ID":"2025-187G","EPOCH":"2026-03-07T14:28:26.737536","MEAN_MOTION":13.29343257,"ECCENTRICITY":0.00010242,"INCLINATION":50.0027,"RA_OF_ASC_NODE":210.4747,"ARG_OF_PERICENTER":145.4164,"MEAN_ANOMALY":214.6775,"EPHEMERIS_TYPE":0,"CLASSIFICATION_TYPE":"U","NORAD_CAT_ID":65311,"ELEMENT_SET_NO":999,"REV_AT_EPOCH":2618,"BSTAR":9.17725e-5,"MEAN_MOTION_DOT":-8.1e-7,"MEAN_MOTION_DDOT":0},{"OBJECT_NAME":"HULIANWANG DIGUI-80","OBJECT_ID":"2025-187H","EPOCH":"2026-03-07T13:52:32.798496","MEAN_MOTION":13.29341449,"ECCENTRICITY":0.00010442,"INCLINATION":50.0018,"RA_OF_ASC_NODE":210.3316,"ARG_OF_PERICENTER":144.683,"MEAN_ANOMALY":215.4111,"EPHEMERIS_TYPE":0,"CLASSIFICATION_TYPE":"U","NORAD_CAT_ID":65312,"ELEMENT_SET_NO":999,"REV_AT_EPOCH":2618,"BSTAR":6.9316299e-5,"MEAN_MOTION_DOT":-9.2e-7,"MEAN_MOTION_DDOT":0}]
